FLOCK 4BE-18            
1 60480U 24149N   26138.21710888  .00009907  00000+0  24363-3 0  9998
2 60480  97.3732 221.6572 0003321  29.4477 330.6956 15.40829852 97695
FLOCK 4BE-7             
1 60481U 24149P   26138.19191086  .00012362  00000+0  32211-3 0  9999
2 60481  97.3762 221.0358 0002737  41.2349 318.9102 15.39001759 97637
TOMORROW-S2             
1 60485U 24149T   26138.19667058  .00004562  00000+0  14890-3 0  9996
2 60485  97.3820 219.2343 0003512  48.6605 311.4939 15.32276833 97497
FLOCK 4BE-36            
1 60486U 24149U   26138.20571344  .00009152  00000+0  21873-3 0  9990
2 60486  97.3746 222.2982 0003709  41.8104 318.3426 15.41718321 97732
FLOCK 4BE-25            
1 60487U 24149V   26138.49266161  .00007945  00000+0  21477-3 0  9998
2 60487  97.3800 221.4604 0002297  50.3352 309.8096 15.37998479 97677
FLOCK 4BE-31            
1 60488U 24149W   26138.19610877  .00012890  00000+0  29564-3 0  9993
2 60488  97.3803 223.0663 0002820  53.6015 306.5492 15.42866037 97751
FLOCK 4BE-20            
1 60489U 24149X   26138.50616605  .00008572  00000+0  23735-3 0  9990
2 60489  97.3701 220.4289 0003717  39.5688 320.5827 15.37220046 97654
FLOCK 4BE-23            
1 60490U 24149Y   26138.48931323  .00008429  00000+0  23615-3 0  9994
2 60490  97.3782 220.7714 0003687  47.5367 312.6188 15.36859924 97632
FLOCK 4BE-15            
1 60491U 24149Z   26138.25921737  .00070895  00000+0  11270-2 0  9997
2 60491  97.3700 222.6639 0003209 135.1995 224.9518 15.53074678 97772
FLOCK 4BE-17            
1 60492U 24149AA  26138.44791044  .00009732  00000+0  25542-3 0  9995
2 60492  97.3777 221.6037 0002914  39.7042 320.4416 15.38846038 97681
NUSAT-50 (NANCY ROMAN)  
1 60493U 24149AB  26138.46777316  .00005513  00000+0  19669-3 0  9990
2 60493  97.3790 219.9433 0001952 322.0889  38.0214 15.29293979 97582
FLOCK 4BE-22            
1 60494U 24149AC  26138.19587102  .00009407  00000+0  23631-3 0  9993
2 60494  97.3736 221.4955 0003715  43.9773 316.1768 15.40196832 97688
FLOCK 4BE-34            
1 60495U 24149AD  26138.47316291  .00009313  00000+0  23366-3 0  9995
2 60495  97.3782 222.5780 0004064  52.9261 307.2356 15.40234202 97754
TYCHE                   
1 60496U 24149AE  26138.49431975  .00002919  00000+0  11700-3 0  9999
2 60496  97.3756 216.7087 0003204  53.1346 307.0185 15.25808867 97376
FLOCK 4BE-32            
1 60497U 24149AF  26138.19968146  .00010724  00000+0  26157-3 0  9997
2 60497  97.3724 221.8282 0003890  49.7068 310.4518 15.41055010 97717
NUSAT-48 (HENRIETTA LE*)
1 60498U 24149AG  26138.20292763  .00005728  00000+0  20042-3 0  9990
2 60498  97.3908 219.8547 0004492  42.3951 317.7636 15.29906883 97554
FLOCK 4BE-30            
1 60499U 24149AH  26138.48462578  .00059119  00000+0  10712-2 0  9999
2 60499  97.3789 223.1735 0002020 164.7610 195.3702 15.49436618 97162
NUSAT-49 (KLARA DAN VO*)
1 60500U 24149AJ  26138.18172096  .00005538  00000+0  19361-3 0  9998
2 60500  97.3767 219.6722 0003431  74.5508 285.6112 15.29951726 97548
FLOCK 4BE-11            
1 60501U 24149AK  26138.53505885  .00010226  00000+0  24250-3 0  9997
2 60501  97.3702 222.3676 0003933  45.9331 314.2239 15.41920319 97783
YAM-7                   
1 60504U 24149AN  26138.46114068  .00004485  00000+0  15059-3 0  9998
2 60504  97.3786 218.8412 0004523  59.3702 300.7985 15.31369055 97504
FLOCK 4BE-24            
1 60505U 24149AP  26138.19754552  .00011441  00000+0  27147-3 0  9998
2 60505  97.3719 222.2746 0004122  55.5993 304.5643 15.41869448 97746
LUR-1                   
1 60506U 24149AQ  26138.22218792  .00004550  00000+0  16086-3 0  9997
2 60506  97.3742 217.2766 0005378  65.0294 295.1504 15.29677113 97397
TANAGER-1               
1 60507U 24149AR  26138.29801041  .00006193  00000+0  13501-3 0  9994
2 60507  97.3136 232.4659 0005817  58.2986 301.8829 15.44601195 98429
EAGLEEYE                
1 60508U 24149AS  26138.49885661  .00050769  00000+0  50103-3 0  9994
2 60508  97.3735 230.3208 0001368  19.0480 341.0830 15.65778275 98282
FLOCK 4BE-29            
1 60509U 24149AT  26138.48998744  .00010564  00000+0  24089-3 0  9994
2 60509  97.3810 223.9398 0003541  68.7351 291.4275 15.43091273 97831
TRANSPORTER-11 OBJECT AU
1 60510U 24149AU  26138.48884881  .00008679  00000+0  22447-3 0  9992
2 60510  97.3731 221.9926 0004373  55.8343 304.3317 15.39326077 97741
FLOCK 4BE-2             
1 60511U 24149AV  26138.51120448  .00031554  00000+0  57419-3 0  9994
2 60511  97.3824 225.0378 0003119  64.7482 295.4092 15.49450256 97907
FLOCK 4BE-13            
1 60512U 24149AW  26138.48926584  .00008523  00000+0  20855-3 0  9990
2 60512  97.3722 222.6119 0004240  36.7784 323.3753 15.41025883 97799
FLOCK 4BE-27            
1 60513U 24149AX  26138.45219211  .00005581  00000+0  17269-3 0  9996
2 60513  97.3827 220.3017 0005011  64.9675 295.2087 15.33883752 97589
