OBJECT_NAME,OBJECT_ID,EPOCH,MEAN_MOTION,ECCENTRICITY,INCLINATION,RA_OF_ASC_NODE,ARG_OF_PERICENTER,MEAN_ANOMALY,EPHEMERIS_TYPE,CLASSIFICATION_TYPE,NORAD_CAT_ID,ELEMENT_SET_NO,REV_AT_EPOCH,BSTAR,MEAN_MOTION_DOT,MEAN_MOTION_DDOT
FLOCK 4BE-18,2024-149N,2026-05-18T05:12:38.207232,15.40829852,.0003321,97.3732,221.6572,29.4477,330.6956,0,U,60480,999,9769,.24363E-3,.9907E-4,0
FLOCK 4BE-7,2024-149P,2026-05-18T04:36:21.098304,15.39001759,.0002737,97.3762,221.0358,41.2349,318.9102,0,U,60481,999,9763,.32211E-3,.12362E-3,0
TOMORROW-S2,2024-149T,2026-05-18T04:43:12.338112,15.32276833,.0003512,97.3820,219.2343,48.6605,311.4939,0,U,60485,999,9749,.1489E-3,.4562E-4,0
FLOCK 4BE-36,2024-149U,2026-05-18T04:56:13.641216,15.41718321,.0003709,97.3746,222.2982,41.8104,318.3426,0,U,60486,999,9773,.21873E-3,.9152E-4,0
FLOCK 4BE-25,2024-149V,2026-05-18T11:49:25.963104,15.37998479,.0002297,97.3800,221.4604,50.3352,309.8096,0,U,60487,999,9767,.21477E-3,.7945E-4,0
FLOCK 4BE-31,2024-149W,2026-05-18T04:42:23.797728,15.42866037,.000282,97.3803,223.0663,53.6015,306.5492,0,U,60488,999,9775,.29564E-3,.1289E-3,0
FLOCK 4BE-20,2024-149X,2026-05-18T12:08:52.746720,15.37220046,.0003717,97.3701,220.4289,39.5688,320.5827,0,U,60489,999,9765,.23735E-3,.8572E-4,0
FLOCK 4BE-23,2024-149Y,2026-05-18T11:44:36.663072,15.36859924,.0003687,97.3782,220.7714,47.5367,312.6188,0,U,60490,999,9763,.23615E-3,.8429E-4,0
FLOCK 4BE-15,2024-149Z,2026-05-18T06:13:16.380768,15.53074678,.0003209,97.3700,222.6639,135.1995,224.9518,0,U,60491,999,9777,.1127E-2,.70895E-3,0
FLOCK 4BE-17,2024-149AA,2026-05-18T10:44:59.462016,15.38846038,.0002914,97.3777,221.6037,39.7042,320.4416,0,U,60492,999,9768,.25542E-3,.9732E-4,0
NUSAT-50 (NANCY ROMAN),2024-149AB,2026-05-18T11:13:35.601024,15.29293979,.0001952,97.3790,219.9433,322.0889,38.0214,0,U,60493,999,9758,.19669E-3,.5513E-4,0
FLOCK 4BE-22,2024-149AC,2026-05-18T04:42:03.256128,15.40196832,.0003715,97.3736,221.4955,43.9773,316.1768,0,U,60494,999,9768,.23631E-3,.9407E-4,0
FLOCK 4BE-34,2024-149AD,2026-05-18T11:21:21.275424,15.40234202,.0004064,97.3782,222.5780,52.9261,307.2356,0,U,60495,999,9775,.23366E-3,.9313E-4,0
TYCHE,2024-149AE,2026-05-18T11:51:49.226400,15.25808867,.0003204,97.3756,216.7087,53.1346,307.0185,0,U,60496,999,9737,.117E-3,.2919E-4,0
FLOCK 4BE-32,2024-149AF,2026-05-18T04:47:32.478144,15.41055010,.000389,97.3724,221.8282,49.7068,310.4518,0,U,60497,999,9771,.26157E-3,.10724E-3,0
NUSAT-48 (HENRIETTA LEAVITT),2024-149AG,2026-05-18T04:52:12.947232,15.29906883,.0004492,97.3908,219.8547,42.3951,317.7636,0,U,60498,999,9755,.20042E-3,.5728E-4,0
FLOCK 4BE-30,2024-149AH,2026-05-18T11:37:51.667392,15.49436618,.000202,97.3789,223.1735,164.7610,195.3702,0,U,60499,999,9716,.10712E-2,.59119E-3,0
NUSAT-49 (KLARA DAN VON NEUMANN),2024-149AJ,2026-05-18T04:21:40.690944,15.29951726,.0003431,97.3767,219.6722,74.5508,285.6112,0,U,60500,999,9754,.19361E-3,.5538E-4,0
FLOCK 4BE-11,2024-149AK,2026-05-18T12:50:29.084640,15.41920319,.0003933,97.3702,222.3676,45.9331,314.2239,0,U,60501,999,9778,.2425E-3,.10226E-3,0
YAM-7,2024-149AN,2026-05-18T11:04:02.554752,15.31369055,.0004523,97.3786,218.8412,59.3702,300.7985,0,U,60504,999,9750,.15059E-3,.4485E-4,0
FLOCK 4BE-24,2024-149AP,2026-05-18T04:44:27.932928,15.41869448,.0004122,97.3719,222.2746,55.5993,304.5643,0,U,60505,999,9774,.27147E-3,.11441E-3,0
LUR-1,2024-149AQ,2026-05-18T05:19:57.036288,15.29677113,.0005378,97.3742,217.2766,65.0294,295.1504,0,U,60506,999,9739,.16086E-3,.455E-4,0
TANAGER-1,2024-149AR,2026-05-18T07:09:08.099424,15.44601195,.0005817,97.3136,232.4659,58.2986,301.8829,0,U,60507,999,9842,.13501E-3,.6193E-4,0
EAGLEEYE,2024-149AS,2026-05-18T11:58:21.211104,15.65778275,.0001368,97.3735,230.3208,19.0480,341.0830,0,U,60508,999,9828,.50103E-3,.50769E-3,0
FLOCK 4BE-29,2024-149AT,2026-05-18T11:45:34.914816,15.43091273,.0003541,97.3810,223.9398,68.7351,291.4275,0,U,60509,999,9783,.24089E-3,.10564E-3,0
TRANSPORTER-11 OBJECT AU,2024-149AU,2026-05-18T11:43:56.537184,15.39326077,.0004373,97.3731,221.9926,55.8343,304.3317,0,U,60510,999,9774,.22447E-3,.8679E-4,0
FLOCK 4BE-2,2024-149AV,2026-05-18T12:16:08.067072,15.49450256,.0003119,97.3824,225.0378,64.7482,295.4092,0,U,60511,999,9790,.57419E-3,.31554E-3,0
FLOCK 4BE-13,2024-149AW,2026-05-18T11:44:32.568576,15.41025883,.000424,97.3722,222.6119,36.7784,323.3753,0,U,60512,999,9779,.20855E-3,.8523E-4,0
FLOCK 4BE-27,2024-149AX,2026-05-18T10:51:09.398304,15.33883752,.0005011,97.3827,220.3017,64.9675,295.2087,0,U,60513,999,9758,.17269E-3,.5581E-4,0
